[{"OBJECT_NAME":"SL-8 R/B","OBJECT_ID":"1991-006B","EPOCH":"2026-04-24T04:02:51.042048","MEAN_MOTION":13.77503818,"ECCENTRICITY":0.00209348,"INCLINATION":82.9401,"RA_OF_ASC_NODE":136.2245,"ARG_OF_PERICENTER":267.5907,"MEAN_ANOMALY":159.9043,"EPHEMERIS_TYPE":0,"CLASSIFICATION_TYPE":"U","NORAD_CAT_ID":21088,"ELEMENT_SET_NO":999,"REV_AT_EPOCH":77033,"BSTAR":0.00014030685,"MEAN_MOTION_DOT":1.55e-6,"MEAN_MOTION_DDOT":0},{"OBJECT_NAME":"OKEAN-3","OBJECT_ID":"1991-039A","EPOCH":"2026-04-23T23:00:18.160992","MEAN_MOTION":15.05040835,"ECCENTRICITY":0.00142781,"INCLINATION":82.5131,"RA_OF_ASC_NODE":292.9647,"ARG_OF_PERICENTER":169.8625,"MEAN_ANOMALY":190.2892,"EPHEMERIS_TYPE":0,"CLASSIFICATION_TYPE":"U","NORAD_CAT_ID":21397,"ELEMENT_SET_NO":999,"REV_AT_EPOCH":87184,"BSTAR":0.00014389595,"MEAN_MOTION_DOT":2.075e-5,"MEAN_MOTION_DDOT":0},{"OBJECT_NAME":"COSMOS 2151","OBJECT_ID":"1991-042A","EPOCH":"2026-04-24T05:44:06.174240","MEAN_MOTION":15.00287767,"ECCENTRICITY":0.0010605,"INCLINATION":82.4986,"RA_OF_ASC_NODE":39.7313,"ARG_OF_PERICENTER":265.8149,"MEAN_ANOMALY":94.1863,"EPHEMERIS_TYPE":0,"CLASSIFICATION_TYPE":"U","NORAD_CAT_ID":21422,"ELEMENT_SET_NO":999,"REV_AT_EPOCH":87002,"BSTAR":9.1175844e-5,"MEAN_MOTION_DOT":1.17e-5,"MEAN_MOTION_DDOT":0},{"OBJECT_NAME":"SL-14 R/B","OBJECT_ID":"1991-042B","EPOCH":"2026-04-24T03:13:33.837024","MEAN_MOTION":14.81868871,"ECCENTRICITY":0.00186059,"INCLINATION":82.4948,"RA_OF_ASC_NODE":177.5822,"ARG_OF_PERICENTER":92.0395,"MEAN_ANOMALY":268.295,"EPHEMERIS_TYPE":0,"CLASSIFICATION_TYPE":"U","NORAD_CAT_ID":21423,"ELEMENT_SET_NO":999,"REV_AT_EPOCH":85980,"BSTAR":2.6227637e-5,"MEAN_MOTION_DOT":2.32e-6,"MEAN_MOTION_DDOT":0},{"OBJECT_NAME":"ERS-1","OBJECT_ID":"1991-050A","EPOCH":"2026-04-24T00:25:48.230112","MEAN_MOTION":14.39481692,"ECCENTRICITY":0.00330274,"INCLINATION":98.7837,"RA_OF_ASC_NODE":133.3851,"ARG_OF_PERICENTER":68.8139,"MEAN_ANOMALY":291.6572,"EPHEMERIS_TYPE":0,"CLASSIFICATION_TYPE":"U","NORAD_CAT_ID":21574,"ELEMENT_SET_NO":999,"REV_AT_EPOCH":82225,"BSTAR":8.009761e-5,"MEAN_MOTION_DOT":2.05e-6,"MEAN_MOTION_DDOT":0},{"OBJECT_NAME":"ARIANE 40 R/B","OBJECT_ID":"1991-050F","EPOCH":"2026-04-24T02:23:43.369728","MEAN_MOTION":14.42923775,"ECCENTRICITY":0.00018908,"INCLINATION":98.1925,"RA_OF_ASC_NODE":164.6113,"ARG_OF_PERICENTER":310.8203,"MEAN_ANOMALY":49.2823,"EPHEMERIS_TYPE":0,"CLASSIFICATION_TYPE":"U","NORAD_CAT_ID":21610,"ELEMENT_SET_NO":999,"REV_AT_EPOCH":82554,"BSTAR":6.3536095e-5,"MEAN_MOTION_DOT":1.71e-6,"MEAN_MOTION_DDOT":0},{"OBJECT_NAME":"INTERCOSMOS 25","OBJECT_ID":"1991-086A","EPOCH":"2026-04-23T23:19:33.466368","MEAN_MOTION":12.12126509,"ECCENTRICITY":0.14857336,"INCLINATION":82.5991,"RA_OF_ASC_NODE":282.6202,"ARG_OF_PERICENTER":19.3427,"MEAN_ANOMALY":345.8366,"EPHEMERIS_TYPE":0,"CLASSIFICATION_TYPE":"U","NORAD_CAT_ID":21819,"ELEMENT_SET_NO":999,"REV_AT_EPOCH":50217,"BSTAR":9.0496347e-5,"MEAN_MOTION_DOT":4.83e-6,"MEAN_MOTION_DDOT":0},{"OBJECT_NAME":"SL-8 R/B","OBJECT_ID":"1992-008B","EPOCH":"2026-04-24T07:24:48.468384","MEAN_MOTION":13.75970465,"ECCENTRICITY":0.00346858,"INCLINATION":82.9276,"RA_OF_ASC_NODE":233.8414,"ARG_OF_PERICENTER":9.5447,"MEAN_ANOMALY":19.4937,"EPHEMERIS_TYPE":0,"CLASSIFICATION_TYPE":"U","NORAD_CAT_ID":21876,"ELEMENT_SET_NO":999,"REV_AT_EPOCH":71569,"BSTAR":3.3847808e-5,"MEAN_MOTION_DOT":4.8e-7,"MEAN_MOTION_DDOT":0},{"OBJECT_NAME":"SL-8 R/B","OBJECT_ID":"1992-020B","EPOCH":"2026-04-24T03:45:34.433856","MEAN_MOTION":13.75548673,"ECCENTRICITY":0.0029285,"INCLINATION":82.9269,"RA_OF_ASC_NODE":119.9929,"ARG_OF_PERICENTER":168.0964,"MEAN_ANOMALY":265.0386,"EPHEMERIS_TYPE":0,"CLASSIFICATION_TYPE":"U","NORAD_CAT_ID":21938,"ELEMENT_SET_NO":999,"REV_AT_EPOCH":70738,"BSTAR":-5.6987841e-5,"MEAN_MOTION_DOT":-4.0e-7,"MEAN_MOTION_DDOT":0},{"OBJECT_NAME":"USA 81","OBJECT_ID":"1992-023A","EPOCH":"2026-04-23T23:54:34.462080","MEAN_MOTION":14.32381781,"ECCENTRICITY":0.0001282,"INCLINATION":85.0035,"RA_OF_ASC_NODE":105.2862,"ARG_OF_PERICENTER":100.7424,"MEAN_ANOMALY":259.3913,"EPHEMERIS_TYPE":0,"CLASSIFICATION_TYPE":"U","NORAD_CAT_ID":21949,"ELEMENT_SET_NO":999,"REV_AT_EPOCH":10127,"BSTAR":4.4624149e-5,"MEAN_MOTION_DOT":1.41e-6,"MEAN_MOTION_DDOT":0},{"OBJECT_NAME":"COSMOS 2219","OBJECT_ID":"1992-076A","EPOCH":"2026-04-23T22:26:12.742944","MEAN_MOTION":14.14094274,"ECCENTRICITY":0.00169399,"INCLINATION":71.0592,"RA_OF_ASC_NODE":283.4843,"ARG_OF_PERICENTER":135.5391,"MEAN_ANOMALY":224.7095,"EPHEMERIS_TYPE":0,"CLASSIFICATION_TYPE":"U","NORAD_CAT_ID":22219,"ELEMENT_SET_NO":999,"REV_AT_EPOCH":72477,"BSTAR":0.00021524445,"MEAN_MOTION_DOT":3.63e-6,"MEAN_MOTION_DDOT":0},{"OBJECT_NAME":"SL-16 R/B","OBJECT_ID":"1992-076B","EPOCH":"2026-04-24T05:44:45.895776","MEAN_MOTION":14.16865848,"ECCENTRICITY":0.0011973,"INCLINATION":70.9982,"RA_OF_ASC_NODE":92.4232,"ARG_OF_PERICENTER":15.2371,"MEAN_ANOMALY":77.2178,"EPHEMERIS_TYPE":0,"CLASSIFICATION_TYPE":"U","NORAD_CAT_ID":22220,"ELEMENT_SET_NO":999,"REV_AT_EPOCH":72828,"BSTAR":-8.8432793e-5,"MEAN_MOTION_DOT":-2.25e-6,"MEAN_MOTION_DDOT":0},{"OBJECT_NAME":"COSMOS 2221","OBJECT_ID":"1992-080A","EPOCH":"2026-04-24T07:29:06.376704","MEAN_MOTION":14.96382845,"ECCENTRICITY":0.0015115,"INCLINATION":82.5044,"RA_OF_ASC_NODE":235.3692,"ARG_OF_PERICENTER":44.2064,"MEAN_ANOMALY":316.0363,"EPHEMERIS_TYPE":0,"CLASSIFICATION_TYPE":"U","NORAD_CAT_ID":22236,"ELEMENT_SET_NO":999,"REV_AT_EPOCH":78761,"BSTAR":0.00012330426,"MEAN_MOTION_DOT":1.425e-5,"MEAN_MOTION_DDOT":0},{"OBJECT_NAME":"SL-16 R/B","OBJECT_ID":"1992-093B","EPOCH":"2026-04-23T21:32:31.452864","MEAN_MOTION":14.15456154,"ECCENTRICITY":0.00061793,"INCLINATION":71.0206,"RA_OF_ASC_NODE":269.3595,"ARG_OF_PERICENTER":247.561,"MEAN_ANOMALY":112.4859,"EPHEMERIS_TYPE":0,"CLASSIFICATION_TYPE":"U","NORAD_CAT_ID":22285,"ELEMENT_SET_NO":999,"REV_AT_EPOCH":71955,"BSTAR":0.00018652998,"MEAN_MOTION_DOT":3.17e-6,"MEAN_MOTION_DDOT":0},{"OBJECT_NAME":"COSMOS 2228","OBJECT_ID":"1992-094A","EPOCH":"2026-04-24T05:32:12.159456","MEAN_MOTION":14.97404056,"ECCENTRICITY":0.00189451,"INCLINATION":82.5204,"RA_OF_ASC_NODE":193.7124,"ARG_OF_PERICENTER":145.2123,"MEAN_ANOMALY":215.0342,"EPHEMERIS_TYPE":0,"CLASSIFICATION_TYPE":"U","NORAD_CAT_ID":22286,"ELEMENT_SET_NO":999,"REV_AT_EPOCH":78287,"BSTAR":0.00012842873,"MEAN_MOTION_DOT":1.525e-5,"MEAN_MOTION_DDOT":0},{"OBJECT_NAME":"SL-16 R/B","OBJECT_ID":"1993-016B","EPOCH":"2026-04-24T05:24:22.038048","MEAN_MOTION":14.15310291,"ECCENTRICITY":0.00126172,"INCLINATION":71.0038,"RA_OF_ASC_NODE":119.5456,"ARG_OF_PERICENTER":256.763,"MEAN_ANOMALY":103.2086,"EPHEMERIS_TYPE":0,"CLASSIFICATION_TYPE":"U","NORAD_CAT_ID":22566,"ELEMENT_SET_NO":999,"REV_AT_EPOCH":70861,"BSTAR":-0.00011720498,"MEAN_MOTION_DOT":-2.76e-6,"MEAN_MOTION_DDOT":0},{"OBJECT_NAME":"COSMOS 2242","OBJECT_ID":"1993-024A","EPOCH":"2026-04-24T07:11:37.656960","MEAN_MOTION":14.96737879,"ECCENTRICITY":0.00171757,"INCLINATION":82.5203,"RA_OF_ASC_NODE":223.0841,"ARG_OF_PERICENTER":148.0763,"MEAN_ANOMALY":212.1504,"EPHEMERIS_TYPE":0,"CLASSIFICATION_TYPE":"U","NORAD_CAT_ID":22626,"ELEMENT_SET_NO":999,"REV_AT_EPOCH":78721,"BSTAR":0.00013132168,"MEAN_MOTION_DOT":1.531e-5,"MEAN_MOTION_DDOT":0}]
