SL-8 R/B                
1 21088U 91006B   26114.16864632  .00000155  00000+0  14031-3 0  9997
2 21088  82.9401 136.2245 0020934 267.5907 159.9043 13.77503818770336
OKEAN-3                 
1 21397U 91039A   26113.95854353  .00002075  00000+0  14390-3 0  9992
2 21397  82.5131 292.9647 0014278 169.8625 190.2892 15.05040835871842
COSMOS 2151             
1 21422U 91042A   26114.23896035  .00001170  00000+0  91176-4 0  9993
2 21422  82.4986  39.7313 0010605 265.8149  94.1863 15.00287767870024
SL-14 R/B               
1 21423U 91042B   26114.13441941  .00000232  00000+0  26228-4 0  9999
2 21423  82.4948 177.5822 0018605  92.0395 268.2950 14.81868871859803
ERS-1                   
1 21574U 91050A   26114.01791933  .00000205  00000+0  80098-4 0  9996
2 21574  98.7837 133.3851 0033027  68.8139 291.6572 14.39481692822255
ARIANE 40 R/B           
1 21610U 91050F   26114.09980752  .00000171  00000+0  63536-4 0  9994
2 21610  98.1925 164.6113 0001890 310.8203  49.2823 14.42923775825549
INTERCOSMOS 25          
1 21819U 91086A   26113.97191512  .00000483  00000+0  90496-4 0  9999
2 21819  82.5991 282.6202 1485733  19.3427 345.8366 12.12126509502175
SL-8 R/B                
1 21876U 92008B   26114.30889431  .00000048  00000+0  33848-4 0  9994
2 21876  82.9276 233.8414 0034685   9.5447  19.4937 13.75970465715698
SL-8 R/B                
1 21938U 92020B   26114.15664854 -.00000040  00000+0 -56988-4 0  9994
2 21938  82.9269 119.9929 0029285 168.0964 265.0386 13.75548673707385
USA 81                  
1 21949U 92023A   26113.99623220  .00000141  00000+0  44624-4 0  9996
2 21949  85.0035 105.2862 0001282 100.7424 259.3913 14.32381781101274
COSMOS 2219             
1 22219U 92076A   26113.93486971  .00000363  00000+0  21524-3 0  9998
2 22219  71.0592 283.4843 0016939 135.5391 224.7095 14.14094274724771
SL-16 R/B               
1 22220U 92076B   26114.23942009 -.00000225  00000+0 -88433-4 0  9995
2 22220  70.9982  92.4232 0011973  15.2371  77.2178 14.16865848728287
COSMOS 2221             
1 22236U 92080A   26114.31187936  .00001425  00000+0  12330-3 0  9999
2 22236  82.5044 235.3692 0015115  44.2064 316.0363 14.96382845787614
SL-16 R/B               
1 22285U 92093B   26113.89758626  .00000317  00000+0  18653-3 0  9992
2 22285  71.0206 269.3595 0006179 247.5610 112.4859 14.15456154719557
COSMOS 2228             
1 22286U 92094A   26114.23069629  .00001525  00000+0  12843-3 0  9998
2 22286  82.5204 193.7124 0018945 145.2123 215.0342 14.97404056782874
SL-16 R/B               
1 22566U 93016B   26114.22525507 -.00000276  00000+0 -11720-3 0  9992
2 22566  71.0038 119.5456 0012617 256.7630 103.2086 14.15310291708618
COSMOS 2242             
1 22626U 93024A   26114.29974140  .00001531  00000+0  13132-3 0  9998
2 22626  82.5203 223.0841 0017175 148.0763 212.1504 14.96737879787211
